[{"col1":"1 13601U 23001EAE 25076.92623843  .00030938  00000+0  12818-2 0  9996"},{"col1":"2 13601 045.0000 000.0000 0000001 000.0000 200.0000 01.46994000000000"},{"col1":"500.00000"},{"col1":"7500.00000"},{"col1":"0"}]
